start=new Date('2021-10-18T00:00:00.000Z').valueOf();
sats=[{"SEMIMAJOR_AXIS":"6925.379","TIME_SYSTEM":"UTC","REF_FRAME":"TEME","TLE_LINE1":"1 46357U 20062AJ  21290.18149325  .00001810  00000-0  14041-3 0  9995","BSTAR":"0.00014041000000","TLE_LINE2":"2 46357  53.0564 359.5456 0001303  95.4079 264.7059 15.06390196 62751","CENTER_NAME":"EARTH","PERIOD":"95.593","SITE":"AFETR","ELEMENT_SET_NO":"999","RCS_SIZE":"LARGE","MEAN_MOTION_DDOT":"0.0000000000000","REV_AT_EPOCH":"6275","RA_OF_ASC_NODE":"359.5456","OBJECT_TYPE":"PAYLOAD","MEAN_MOTION_DOT":"0.00001810","EPHEMERIS_TYPE":"0","MEAN_ANOMALY":"264.7059","ARG_OF_PERICENTER":"95.4079","FILE":"3168566","DECAY_DATE":null,"ECCENTRICITY":"0.00013030","EPOCH":"2021-10-17T04:21:21.016800","APOAPSIS":"548.146","OBJECT_ID":"2020-062AJ","NORAD_CAT_ID":"46357","GP_ID":"187443899","PERIAPSIS":"546.341","MEAN_ELEMENT_THEORY":"SGP4","MEAN_MOTION":"15.06390196","OBJECT_NAME":"STARLINK-1666","COUNTRY_CODE":"US","LAUNCH_DATE":"2020-09-03","CLASSIFICATION_TYPE":"U","INCLINATION":"53.0564"},{"MEAN_MOTION":"15.06395254","PERIAPSIS":"546.557","GP_ID":"187444149","NORAD_CAT_ID":"46358","MEAN_ELEMENT_THEORY":"SGP4","APOAPSIS":"547.899","ECCENTRICITY":"0.00009690","EPOCH":"2021-10-16T23:05:31.546752","OBJECT_ID":"2020-062AK","EPHEMERIS_TYPE":"0","MEAN_ANOMALY":"260.8998","MEAN_MOTION_DOT":"0.00001979","DECAY_DATE":null,"FILE":"3168566","ARG_OF_PERICENTER":"99.2100","CLASSIFICATION_TYPE":"U","INCLINATION":"53.0551","LAUNCH_DATE":"2020-09-03","COUNTRY_CODE":"US","OBJECT_NAME":"STARLINK-1690","PERIOD":"95.592","CENTER_NAME":"EARTH","TLE_LINE2":"2 46358  53.0551  20.5235 0000969  99.2100 260.8998 15.06395254 62447","SITE":"AFETR","REF_FRAME":"TEME","TIME_SYSTEM":"UTC","BSTAR":"0.00015171000000","TLE_LINE1":"1 46358U 20062AK  21289.96217068  .00001979  00000-0  15171-3 0  9991","SEMIMAJOR_AXIS":"6925.363","OBJECT_TYPE":"PAYLOAD","RA_OF_ASC_NODE":"20.5235","MEAN_MOTION_DDOT":"0.0000000000000","REV_AT_EPOCH":"6244","ELEMENT_SET_NO":"999","RCS_SIZE":"LARGE"},{"CENTER_NAME":"EARTH","PERIOD":"95.593","TLE_LINE2":"2 46359  53.0553 334.1257 0001264  87.8345 272.2788 15.06390953 63111","SITE":"AFETR","REF_FRAME":"TEME","TIME_SYSTEM":"UTC","BSTAR":"0.00014879000000","TLE_LINE1":"1 46359U 20062AL  21290.27409869  .00001935  00000-0  14879-3 0  9996","SEMIMAJOR_AXIS":"6925.376","OBJECT_TYPE":"PAYLOAD","RA_OF_ASC_NODE":"334.1257","MEAN_MOTION_DDOT":"0.0000000000000","REV_AT_EPOCH":"6311","ELEMENT_SET_NO":"999","RCS_SIZE":"LARGE","MEAN_MOTION":"15.06390953","NORAD_CAT_ID":"46359","GP_ID":"187444901","PERIAPSIS":"546.366","MEAN_ELEMENT_THEORY":"SGP4","APOAPSIS":"548.117","ECCENTRICITY":"0.00012640","EPOCH":"2021-10-17T06:34:42.126816","OBJECT_ID":"2020-062AL","MEAN_ANOMALY":"272.2788","EPHEMERIS_TYPE":"0","MEAN_MOTION_DOT":"0.00001935","DECAY_DATE":null,"FILE":"3168566","ARG_OF_PERICENTER":"87.8345","CLASSIFICATION_TYPE":"U","INCLINATION":"53.0553","LAUNCH_DATE":"2020-09-03","COUNTRY_CODE":"US","OBJECT_NAME":"STARLINK-1707"},{"MEAN_MOTION":"15.06393327","GP_ID":"187445651","NORAD_CAT_ID":"46360","PERIAPSIS":"546.426","MEAN_ELEMENT_THEORY":"SGP4","EPOCH":"2021-10-17T07:06:32.684832","ECCENTRICITY":"0.00011670","APOAPSIS":"548.042","OBJECT_ID":"2020-062AM","MEAN_MOTION_DOT":"0.00001692","EPHEMERIS_TYPE":"0","MEAN_ANOMALY":"274.5573","FILE":"3168566","ARG_OF_PERICENTER":"85.5549","DECAY_DATE":null,"CLASSIFICATION_TYPE":"U","INCLINATION":"53.0552","LAUNCH_DATE":"2020-09-03","OBJECT_NAME":"STARLINK-1713","COUNTRY_CODE":"US","TLE_LINE2":"2 46360  53.0552 334.0313 0001167  85.5549 274.5573 15.06393327 63123","PERIOD":"95.593","CENTER_NAME":"EARTH","SITE":"AFETR","TIME_SYSTEM":"UTC","REF_FRAME":"TEME","TLE_LINE1":"1 46360U 20062AM  21290.29621163  .00001692  00000-0  13248-3 0  9992","BSTAR":"0.00013248000000","SEMIMAJOR_AXIS":"6925.369","RA_OF_ASC_NODE":"334.0313","OBJECT_TYPE":"PAYLOAD","MEAN_MOTION_DDOT":"0.0000000000000","REV_AT_EPOCH":"6312","ELEMENT_SET_NO":"999","RCS_SIZE":"LARGE"},{"CLASSIFICATION_TYPE":"U","INCLINATION":"53.0558","OBJECT_NAME":"STARLINK-1722","COUNTRY_CODE":"US","LAUNCH_DATE":"2020-09-03","NORAD_CAT_ID":"46361","GP_ID":"187444399","PERIAPSIS":"546.409","MEAN_ELEMENT_THEORY":"SGP4","MEAN_MOTION":"15.06379283","MEAN_MOTION_DOT":"0.00003699","MEAN_ANOMALY":"268.8968","EPHEMERIS_TYPE":"0","FILE":"3168566","ARG_OF_PERICENTER":"91.2165","DECAY_DATE":null,"ECCENTRICITY":"0.00012540","EPOCH":"2021-10-17T06:24:05.527296","APOAPSIS":"548.145","OBJECT_ID":"2020-062AN","MEAN_MOTION_DDOT":"0.0000000000000","REV_AT_EPOCH":"6311","OBJECT_TYPE":"PAYLOAD","RA_OF_ASC_NODE":"334.1608","ELEMENT_SET_NO":"999","RCS_SIZE":"LARGE","TIME_SYSTEM":"UTC","REF_FRAME":"TEME","TLE_LINE1":"1 46361U 20062AN  21290.26673064  .00003699  00000-0  26722-3 0  9997","BSTAR":"0.00026722000000","TLE_LINE2":"2 46361  53.0558 334.1608 0001254  91.2165 268.8968 15.06379283 63111","PERIOD":"95.593","CENTER_NAME":"EARTH","SITE":"AFETR","SEMIMAJOR_AXIS":"6925.412"},{"OBJECT_NAME":"STARLINK-1726","COUNTRY_CODE":"US","LAUNCH_DATE":"2020-09-03","INCLINATION":"53.0541","CLASSIFICATION_TYPE":"U","ARG_OF_PERICENTER":"85.3229","FILE":"3168566","DECAY_DATE":null,"MEAN_MOTION_DOT":"0.00001746","MEAN_ANOMALY":"274.7881","EPHEMERIS_TYPE":"0","OBJECT_ID":"2020-062AP","EPOCH":"2021-10-17T07:27:47.901312","ECCENTRICITY":"0.00010560","APOAPSIS":"547.989","PERIAPSIS":"546.526","GP_ID":"187444649","NORAD_CAT_ID":"46362","MEAN_ELEMENT_THEORY":"SGP4","MEAN_MOTION":"15.06385583","RCS_SIZE":"LARGE","ELEMENT_SET_NO":"999","REV_AT_EPOCH":"6312","MEAN_MOTION_DDOT":"0.0000000000000","RA_OF_ASC_NODE":"333.9554","OBJECT_TYPE":"PAYLOAD","SEMIMAJOR_AXIS":"6925.393","TLE_LINE1":"1 46362U 20062AP  21290.31097108  .00001746  00000-0  13613-3 0  9999","BSTAR":"0.00013613000000","TIME_SYSTEM":"UTC","REF_FRAME":"TEME","SITE":"AFETR","TLE_LINE2":"2 46362  53.0541 333.9554 0001056  85.3229 274.7881 15.06385583 63127","CENTER_NAME":"EARTH","PERIOD":"95.593"},{"EPOCH":"2021-10-17T07:17:10.771296","ECCENTRICITY":"0.00011040","APOAPSIS":"548.018","OBJECT_ID":"2020-062AQ","MEAN_MOTION_DOT":"0.00001631","EPHEMERIS_TYPE":"0","MEAN_ANOMALY":"262.4095","FILE":"3168566","ARG_OF_PERICENTER":"97.7020","DECAY_DATE":null,"MEAN_MOTION":"15.06386934","NORAD_CAT_ID":"46363","GP_ID":"187445401","PERIAPSIS":"546.489","MEAN_ELEMENT_THEORY":"SGP4","LAUNCH_DATE":"2020-09-03","OBJECT_NAME":"STARLINK-1739","COUNTRY_CODE":"US","CLASSIFICATION_TYPE":"U","INCLINATION":"53.0547","SEMIMAJOR_AXIS":"6925.389","TLE_LINE2":"2 46363  53.0547 333.9900 0001104  97.7020 262.4095 15.06386934 63121","CENTER_NAME":"EARTH","PERIOD":"95.593","SITE":"AFETR","TIME_SYSTEM":"UTC","REF_FRAME":"TEME","TLE_LINE1":"1 46363U 20062AQ  21290.30359689  .00001631  00000-0  12843-3 0  9991","BSTAR":"0.00012843000000","ELEMENT_SET_NO":"999","RCS_SIZE":"LARGE","OBJECT_TYPE":"PAYLOAD","RA_OF_ASC_NODE":"333.9900","MEAN_MOTION_DDOT":"0.0000000000000","REV_AT_EPOCH":"6312"},{"OBJECT_TYPE":"PAYLOAD","RA_OF_ASC_NODE":"314.2205","MEAN_MOTION_DDOT":"0.0000000000000","REV_AT_EPOCH":"6339","ELEMENT_SET_NO":"999","RCS_SIZE":"LARGE","TLE_LINE2":"2 46364  53.0534 314.2205 0006218  67.2727 292.8919 15.06395240 63396","CENTER_NAME":"EARTH","PERIOD":"95.592","SITE":"AFETR","TIME_SYSTEM":"UTC","REF_FRAME":"TEME","TLE_LINE1":"1 46364U 20062AR  21290.25382985  .00002971  00000-0  21835-3 0  9990","BSTAR":"0.00021835000000","SEMIMAJOR_AXIS":"6925.363","CLASSIFICATION_TYPE":"U","INCLINATION":"53.0534","LAUNCH_DATE":"2020-09-03","OBJECT_NAME":"STARLINK-1763","COUNTRY_CODE":"US","MEAN_MOTION":"15.06395240","NORAD_CAT_ID":"46364","GP_ID":"187445152","PERIAPSIS":"542.922","MEAN_ELEMENT_THEORY":"SGP4","EPOCH":"2021-10-17T06:05:30.899040","ECCENTRICITY":"0.00062180","APOAPSIS":"551.534","OBJECT_ID":"2020-062AR","MEAN_MOTION_DOT":"0.00002971","EPHEMERIS_TYPE":"0","MEAN_ANOMALY":"292.8919","ARG_OF_PERICENTER":"67.2727","FILE":"3168566","DECAY_DATE":null},{"GP_ID":"187443900","PERIAPSIS":"546.440","NORAD_CAT_ID":"46365","MEAN_ELEMENT_THEORY":"SGP4","MEAN_MOTION":"15.06381880","MEAN_ANOMALY":"263.8803","EPHEMERIS_TYPE":"0","MEAN_MOTION_DOT":"0.00002343","DECAY_DATE":null,"ARG_OF_PERICENTER":"96.2322","FILE":"3168566","APOAPSIS":"548.098","EPOCH":"2021-10-17T06:45:20.428416","ECCENTRICITY":"0.00011970","OBJECT_ID":"2020-062AS","CLASSIFICATION_TYPE":"U","INCLINATION":"53.0549","COUNTRY_CODE":"US","OBJECT_NAME":"STARLINK-1550","LAUNCH_DATE":"2020-09-03","REF_FRAME":"TEME","TIME_SYSTEM":"UTC","BSTAR":"0.00017623000000","TLE_LINE1":"1 46365U 20062AS  21290.28148644  .00002343  00000-0  17623-3 0  9999","PERIOD":"95.593","CENTER_NAME":"EARTH","TLE_LINE2":"2 46365  53.0549 334.0897 0001197  96.2322 263.8803 15.06381880 63119","SITE":"AFETR","SEMIMAJOR_AXIS":"6925.404","MEAN_MOTION_DDOT":"0.0000000000000","REV_AT_EPOCH":"6311","OBJECT_TYPE":"PAYLOAD","RA_OF_ASC_NODE":"334.0897","ELEMENT_SET_NO":"999","RCS_SIZE":"LARGE"},{"REF_FRAME":"TEME","TIME_SYSTEM":"UTC","BSTAR":"0.00027099000000","TLE_LINE1":"1 46366U 20062AT  21290.27041652  .00003756  00000-0  27099-3 0  9997","PERIOD":"95.593","CENTER_NAME":"EARTH","TLE_LINE2":"2 46366  53.0551 334.1411 0001155  99.4806 260.6314 15.06391300 63112","SITE":"AFETR","SEMIMAJOR_AXIS":"6925.375","MEAN_MOTION_DDOT":"0.0000000000000","REV_AT_EPOCH":"6311","OBJECT_TYPE":"PAYLOAD","RA_OF_ASC_NODE":"334.1411","ELEMENT_SET_NO":"999","RCS_SIZE":"LARGE","GP_ID":"187444150","MEAN_ELEMENT_THEORY":"SGP4","PERIAPSIS":"546.440","NORAD_CAT_ID":"46366","MEAN_MOTION":"15.06391300","EPHEMERIS_TYPE":"0","MEAN_ANOMALY":"260.6314","MEAN_MOTION_DOT":"0.00003756","DECAY_DATE":null,"FILE":"3168566","ARG_OF_PERICENTER":"99.4806","APOAPSIS":"548.040","EPOCH":"2021-10-17T06:29:23.987328","ECCENTRICITY":"0.00011550","OBJECT_ID":"2020-062AT","CLASSIFICATION_TYPE":"U","INCLINATION":"53.0551","COUNTRY_CODE":"US","OBJECT_NAME":"STARLINK-1651","LAUNCH_DATE":"2020-09-03"}];
